$$SOE
2461295.500000000, A.D. 2026-Sep-12 00:00:00.0000, -4.165342643819170E+08, -4.035399351834326E+08, 1.329707200235309E+08,
2461302.500000000, A.D. 2026-Sep-19 00:00:00.0000, -4.104986046850606E+08, -4.072345250219870E+08, 1.332449593246953E+08,
2461309.500000000, A.D. 2026-Sep-26 00:00:00.0000, -4.043675434384384E+08, -4.108345008473274E+08, 1.334882337915569E+08,
2461316.500000000, A.D. 2026-Oct-03 00:00:00.0000, -3.981417059447645E+08, -4.143382147192672E+08, 1.337002226762672E+08,
2461323.500000000, A.D. 2026-Oct-10 00:00:00.0000, -3.918217271861434E+08, -4.177439893437107E+08, 1.338805993528006E+08,
2461330.500000000, A.D. 2026-Oct-17 00:00:00.0000, -3.854082528917736E+08, -4.210501168246130E+08, 1.340290311479492E+08,
2461337.500000000, A.D. 2026-Oct-24 00:00:00.0000, -3.789019406686564E+08, -4.242548574772971E+08, 1.341451791616722E+08,
2461344.500000000, A.D. 2026-Oct-31 00:00:00.0000, -3.723034611003262E+08, -4.273564387681802E+08, 1.342286980624411E+08,
2461351.500000000, A.D. 2026-Nov-07 00:00:00.0000, -3.656134984785920E+08, -4.303530543051360E+08, 1.342792358327166E+08,
2461358.500000000, A.D. 2026-Nov-14 00:00:00.0000, -3.588327509716953E+08, -4.332428619892638E+08, 1.342964335188561E+08,
2461365.500000000, A.D. 2026-Nov-21 00:00:00.0000, -3.519619320450266E+08, -4.360239806442075E+08, 1.342799252074831E+08,
2461372.500000000, A.D. 2026-Nov-28 00:00:00.0000, -3.450017741370274E+08, -4.386944881293750E+08, 1.342293380742177E+08,
2461379.500000000, A.D. 2026-Dec-05 00:00:00.0000, -3.379530309761016E+08, -4.412524215921997E+08, 1.341442921196890E+08,
2461386.500000000, A.D. 2026-Dec-12 00:00:00.0000, -3.308164783797446E+08, -4.436957767469491E+08, 1.340243998326027E+08,
2461393.500000000, A.D. 2026-Dec-19 00:00:00.0000, -3.235929154294342E+08, -4.460225061715822E+08, 1.338692659539169E+08,
2461400.500000000, A.D. 2026-Dec-26 00:00:00.0000, -3.162831661701406E+08, -4.482305174886509E+08, 1.336784872845421E+08,
2461407.500000000, A.D. 2027-Jan-02 00:00:00.0000, -3.088880815657235E+08, -4.503176716194648E+08, 1.334516524959820E+08,
2461414.500000000, A.D. 2027-Jan-09 00:00:00.0000, -3.014085416013807E+08, -4.522817810899960E+08, 1.331883419352838E+08,
2461421.500000000, A.D. 2027-Jan-16 00:00:00.0000, -2.938454575071238E+08, -4.541206083785166E+08, 1.328881274223465E+08,
2461428.500000000, A.D. 2027-Jan-23 00:00:00.0000, -2.861997740667431E+08, -4.558318643434300E+08, 1.325505720327760E+08,
2461435.500000000, A.D. 2027-Jan-30 00:00:00.0000, -2.784724718359411E+08, -4.574132067778885E+08, 1.321752298458384E+08,
2461442.500000000, A.D. 2027-Feb-06 00:00:00.0000, -2.706645688571703E+08, -4.588622387499726E+08, 1.317616456470585E+08,
2461449.500000000, A.D. 2027-Feb-13 00:00:00.0000, -2.627771223445237E+08, -4.601765055073879E+08, 1.313093547280542E+08,
2461456.500000000, A.D. 2027-Feb-20 00:00:00.0000, -2.548112327160027E+08, -4.613534907360801E+08, 1.308178829363395E+08,
2461463.500000000, A.D. 2027-Feb-27 00:00:00.0000, -2.467680485911148E+08, -4.623906153852488E+08, 1.302867465851012E+08,
2461470.500000000, A.D. 2027-Mar-06 00:00:00.0000, -2.386487697506296E+08, -4.632852371354471E+08, 1.297154521042663E+08,
2461477.500000000, A.D. 2027-Mar-13 00:00:00.0000, -2.304546496744948E+08, -4.640346484592741E+08, 1.291034957481223E+08,
2461484.500000000, A.D. 2027-Mar-20 00:00:00.0000, -2.221869988035366E+08, -4.646360741083164E+08, 1.284503633957840E+08,
2461491.500000000, A.D. 2027-Mar-27 00:00:00.0000, -2.138471883399980E+08, -4.650866685752066E+08, 1.277555303823546E+08,
2461498.500000000, A.D. 2027-Apr-03 00:00:00.0000, -2.054366544026189E+08, -4.653835135797029E+08, 1.270184613401179E+08,
2461505.500000000, A.D. 2027-Apr-10 00:00:00.0000, -1.969569024957138E+08, -4.655236155579929E+08, 1.262386100485795E+08,
2461512.500000000, A.D. 2027-Apr-17 00:00:00.0000, -1.884095122931915E+08, -4.655039031725208E+08, 1.254154192932765E+08,
2461519.500000000, A.D. 2027-Apr-24 00:00:00.0000, -1.797961426835380E+08, -4.653212249079431E+08, 1.245483207244798E+08,
2461526.500000000, A.D. 2027-May-01 00:00:00.0000, -1.711185368034391E+08, -4.649723467294139E+08, 1.236367346943087E+08,
2461533.500000000, A.D. 2027-May-08 00:00:00.0000, -1.623785267820540E+08, -4.644539490596108E+08, 1.226800701092584E+08,
2461540.500000000, A.D. 2027-May-15 00:00:00.0000, -1.535780397244131E+08, -4.637626221267404E+08, 1.216777245176484E+08,
2461547.500000000, A.D. 2027-May-22 00:00:00.0000, -1.447191065314205E+08, -4.628948622820934E+08, 1.206290843682643E+08,
2461554.500000000, A.D. 2027-May-29 00:00:00.0000, -1.358038702367327E+08, -4.618470707649926E+08, 1.195335250179914E+08,
2461561.500000000, A.D. 2027-Jun-05 00:00:00.0000, -1.268345930154597E+08, -4.606155517955953E+08, 1.183904106699723E+08,
2461568.500000000, A.D. 2027-Jun-12 00:00:00.0000, -1.178136639154565E+08, -4.591965095778428E+08, 1.171990944691718E+08,
2461575.500000000, A.D. 2027-Jun-19 00:00:00.0000, -1.087436076886557E+08, -4.575860451640837E+08, 1.159589187175302E+08,
2461582.500000000, A.D. 2027-Jun-26 00:00:00.0000, -9.962709449285764E+07, -4.557801534625723E+08, 1.146692151710355E+08,
2461589.500000000, A.D. 2027-Jul-03 00:00:00.0000, -9.046695038539842E+07, -4.537747204036119E+08, 1.133293054179754E+08,
2461596.500000000, A.D. 2027-Jul-10 00:00:00.0000, -8.126616862956756E+07, -4.515655202847530E+08, 1.119385013481351E+08,
2461603.500000000, A.D. 2027-Jul-17 00:00:00.0000, -7.202792183992124E+07, -4.491482133688329E+08, 1.104961057208850E+08,
2461610.500000000, A.D. 2027-Jul-24 00:00:00.0000, -6.275557487781679E+07, -4.465183438389301E+08, 1.090014128292141E+08,
2461617.500000000, A.D. 2027-Jul-31 00:00:00.0000, -5.345269815892747E+07, -4.436713379229798E+08, 1.074537092598615E+08,
2461624.500000000, A.D. 2027-Aug-07 00:00:00.0000, -4.412308165215179E+07, -4.406025010924222E+08, 1.058522748828820E+08,
2461631.500000000, A.D. 2027-Aug-14 00:00:00.0000, -3.477075195502189E+07, -4.373070146529222E+08, 1.041963842839748E+08,
2461638.500000000, A.D. 2027-Aug-21 00:00:00.0000, -2.539999191604314E+07, -4.337799351667001E+08, 1.024853083335765E+08,
2461645.500000000, A.D. 2027-Aug-28 00:00:00.0000, -1.601535946666785E+07, -4.300161955925627E+08, 1.007183157059049E+08,
2461652.500000000, A.D. 2027-Sep-04 00:00:00.0000, -6.621706943842591E+06, -4.260106057459100E+08, 9.889467469453895E+07,
2461659.500000000, A.D. 2027-Sep-11 00:00:00.0000, 2.775797596363250E+06, -4.217578528608987E+08, 9.701365543632676E+07,
2461666.500000000, A.D. 2027-Sep-18 00:00:00.0000, 1.217164709750823E+07, -4.172525030447940E+08, 9.507453252082856E+07,
2461673.500000000, A.D. 2027-Sep-25 00:00:00.0000, 2.155997036926999E+07, -4.124890038640590E+08, 9.307658800590548E+07,
2461680.500000000, A.D. 2027-Oct-02 00:00:00.0000, 3.093450506075683E+07, -4.074616882219443E+08, 9.101911488881892E+07,
2461687.500000000, A.D. 2027-Oct-09 00:00:00.0000, 4.028856864650615E+07, -4.021647797489551E+08, 8.890142109140937E+07,
2461694.500000000, A.D. 2027-Oct-16 00:00:00.0000, 4.961502737299857E+07, -3.965924000123538E+08, 8.672283401826143E+07,
2461701.500000000, A.D. 2027-Oct-23 00:00:00.0000, 5.890626331349274E+07, -3.907385778409070E+08, 8.448270574181509E+07,
2461708.500000000, A.D. 2027-Oct-30 00:00:00.0000, 6.815413980006847E+07, -3.845972604888703E+08, 8.218041891767727E+07,
2461715.500000000, A.D. 2027-Nov-06 00:00:00.0000, 7.734996397433679E+07, -3.781623258934631E+08, 7.981539372627179E+07,
2461722.500000000, A.D. 2027-Nov-13 00:00:00.0000, 8.648444439403361E+07, -3.714275985366393E+08, 7.738709595981757E+07,
2461729.500000000, A.D. 2027-Nov-20 00:00:00.0000, 9.554764654821034E+07, -3.643868715910701E+08, 7.489504592694649E+07,
2461736.500000000, A.D. 2027-Nov-27 00:00:00.0000, 1.045289478885447E+08, -3.570339329498026E+08, 7.233882839897439E+07,
2461743.500000000, A.D. 2027-Dec-04 00:00:00.0000, 1.134169903935308E+08, -3.493625948676488E+08, 6.971810400239541E+07,
2461750.500000000, A.D. 2027-Dec-11 00:00:00.0000, 1.221996302197311E+08, -3.413667289054420E+08, 6.703262218805227E+07,
2461757.500000000, A.D. 2027-Dec-18 00:00:00.0000, 1.308638849013557E+08, -3.330403073348437E+08, 6.428223589652160E+07,
2461764.500000000, A.D. 2027-Dec-25 00:00:00.0000, 1.393958785398481E+08, -3.243774519193321E+08, 6.146691808962768E+07,
2461771.500000000, A.D. 2028-Jan-01 00:00:00.0000, 1.477807854461934E+08, -3.153724910663625E+08, 5.858678033809729E+07,
$$EOE